start=new Date('2022-12-08T00:00:00.000Z').valueOf();
sats=[{"OBJECT_TYPE":"PAYLOAD","ARG_OF_PERICENTER":"35.8105","MEAN_ANOMALY":"324.3039","INCLINATION":"53.2187","TLE_LINE1":"1 52483U 22049AJ  22341.70174988  .00000048  00000-0  21115-4 0  9991","CENTER_NAME":"EARTH","LAUNCH_DATE":"2022-05-06","REF_FRAME":"TEME","SITE":"AFETR","RCS_SIZE":"LARGE","MEAN_MOTION_DDOT":"0.0000000000000","OBJECT_ID":"2022-049AJ","CLASSIFICATION_TYPE":"U","ECCENTRICITY":"0.00022770","GP_ID":"219742932","EPHEMERIS_TYPE":"0","PERIOD":"95.438","MEAN_MOTION_DOT":"0.00000048","EPOCH":"2022-12-07T16:50:31.189632","MEAN_ELEMENT_THEORY":"SGP4","PERIAPSIS":"538.169","REV_AT_EPOCH":"3428","BSTAR":"0.00002111500000","MEAN_MOTION":"15.08840301","APOAPSIS":"541.320","NORAD_CAT_ID":"52483","COUNTRY_CODE":"US","TIME_SYSTEM":"UTC","RA_OF_ASC_NODE":"342.1979","ELEMENT_SET_NO":"999","TLE_LINE2":"2 52483  53.2187 342.1979 0002277  35.8105 324.3039 15.08840301 34286","FILE":"3684212","SEMIMAJOR_AXIS":"6917.879","DECAY_DATE":null,"OBJECT_NAME":"STARLINK-3875"},{"INCLINATION":"53.2180","OBJECT_TYPE":"PAYLOAD","MEAN_ANOMALY":"331.1537","ARG_OF_PERICENTER":"28.9610","SITE":"AFETR","RCS_SIZE":"LARGE","MEAN_MOTION_DDOT":"0.0000000000000","OBJECT_ID":"2022-049AK","ECCENTRICITY":"0.00028000","CLASSIFICATION_TYPE":"U","TLE_LINE1":"1 52484U 22049AK  22341.74131868 -.00001500  00000-0 -76119-4 0  9996","LAUNCH_DATE":"2022-05-06","CENTER_NAME":"EARTH","REF_FRAME":"TEME","EPOCH":"2022-12-07T17:47:29.933952","MEAN_MOTION_DOT":"-0.00001500","MEAN_ELEMENT_THEORY":"SGP4","REV_AT_EPOCH":"3291","PERIAPSIS":"537.835","BSTAR":"-0.00007611900000","EPHEMERIS_TYPE":"0","GP_ID":"219743181","PERIOD":"95.438","TLE_LINE2":"2 52484  53.2180 352.0364 0002800  28.9610 331.1537 15.08831300 32910","RA_OF_ASC_NODE":"352.0364","ELEMENT_SET_NO":"999","FILE":"3684212","SEMIMAJOR_AXIS":"6917.907","OBJECT_NAME":"STARLINK-3887","DECAY_DATE":null,"MEAN_MOTION":"15.08831300","NORAD_CAT_ID":"52484","APOAPSIS":"541.709","TIME_SYSTEM":"UTC","COUNTRY_CODE":"US"},{"FILE":"3683621","RA_OF_ASC_NODE":"344.0201","ELEMENT_SET_NO":"999","TLE_LINE2":"2 52485  53.2184 344.0201 0002205  29.8247 330.2871 15.08827709 33146","DECAY_DATE":null,"OBJECT_NAME":"STARLINK-3913","SEMIMAJOR_AXIS":"6917.918","APOAPSIS":"541.308","NORAD_CAT_ID":"52485","MEAN_MOTION":"15.08827709","COUNTRY_CODE":"US","TIME_SYSTEM":"UTC","MEAN_ELEMENT_THEORY":"SGP4","MEAN_MOTION_DOT":"-0.00001746","EPOCH":"2022-12-07T07:07:37.167744","BSTAR":"-0.00009161400000","PERIAPSIS":"538.258","REV_AT_EPOCH":"3314","GP_ID":"219707379","EPHEMERIS_TYPE":"0","PERIOD":"95.438","RCS_SIZE":"LARGE","SITE":"AFETR","CLASSIFICATION_TYPE":"U","ECCENTRICITY":"0.00022050","OBJECT_ID":"2022-049AL","MEAN_MOTION_DDOT":"0.0000000000000","TLE_LINE1":"1 52485U 22049AL  22341.29695796 -.00001746  00000-0 -91614-4 0  9991","REF_FRAME":"TEME","CENTER_NAME":"EARTH","LAUNCH_DATE":"2022-05-06","INCLINATION":"53.2184","ARG_OF_PERICENTER":"29.8247","MEAN_ANOMALY":"330.2871","OBJECT_TYPE":"PAYLOAD"},{"PERIOD":"95.438","EPHEMERIS_TYPE":"0","GP_ID":"219742182","BSTAR":"-0.00011032000000","REV_AT_EPOCH":"3291","PERIAPSIS":"538.057","MEAN_ELEMENT_THEORY":"SGP4","EPOCH":"2022-12-07T17:36:54.043776","MEAN_MOTION_DOT":"-0.00002043","TIME_SYSTEM":"UTC","COUNTRY_CODE":"US","NORAD_CAT_ID":"52486","APOAPSIS":"541.504","MEAN_MOTION":"15.08828459","OBJECT_NAME":"STARLINK-3918","DECAY_DATE":null,"SEMIMAJOR_AXIS":"6917.916","FILE":"3684212","TLE_LINE2":"2 52486  53.2196 352.0673 0002491  29.6741 330.4392 15.08828459 32913","ELEMENT_SET_NO":"999","RA_OF_ASC_NODE":"352.0673","MEAN_ANOMALY":"330.4392","ARG_OF_PERICENTER":"29.6741","OBJECT_TYPE":"PAYLOAD","INCLINATION":"53.2196","REF_FRAME":"TEME","LAUNCH_DATE":"2022-05-06","CENTER_NAME":"EARTH","TLE_LINE1":"1 52486U 22049AM  22341.73395884 -.00002043  00000-0 -11032-3 0  9992","ECCENTRICITY":"0.00024910","CLASSIFICATION_TYPE":"U","MEAN_MOTION_DDOT":"0.0000000000000","OBJECT_ID":"2022-049AM","RCS_SIZE":"LARGE","SITE":"AFETR"},{"DECAY_DATE":null,"OBJECT_NAME":"STARLINK-3902","SEMIMAJOR_AXIS":"6917.888","FILE":"3683621","ELEMENT_SET_NO":"999","RA_OF_ASC_NODE":"344.0101","TLE_LINE2":"2 52487  53.2170 344.0101 0002590  35.9142 324.2024 15.08837356 33143","COUNTRY_CODE":"US","TIME_SYSTEM":"UTC","APOAPSIS":"541.545","NORAD_CAT_ID":"52487","MEAN_MOTION":"15.08837356","BSTAR":"-0.00005750300000","PERIAPSIS":"537.962","REV_AT_EPOCH":"3314","MEAN_ELEMENT_THEORY":"SGP4","MEAN_MOTION_DOT":"-0.00001204","EPOCH":"2022-12-07T07:08:59.005824","PERIOD":"95.438","GP_ID":"219707102","EPHEMERIS_TYPE":"0","CLASSIFICATION_TYPE":"U","ECCENTRICITY":"0.00025900","MEAN_MOTION_DDOT":"0.0000000000000","OBJECT_ID":"2022-049AN","RCS_SIZE":"LARGE","SITE":"AFETR","REF_FRAME":"TEME","CENTER_NAME":"EARTH","LAUNCH_DATE":"2022-05-06","TLE_LINE1":"1 52487U 22049AN  22341.29790516 -.00001204  00000-0 -57503-4 0  9997","INCLINATION":"53.2170","ARG_OF_PERICENTER":"35.9142","MEAN_ANOMALY":"324.2024","OBJECT_TYPE":"PAYLOAD"},{"OBJECT_TYPE":"PAYLOAD","MEAN_ANOMALY":"330.3365","ARG_OF_PERICENTER":"29.7783","INCLINATION":"53.2189","LAUNCH_DATE":"2022-05-06","CENTER_NAME":"EARTH","REF_FRAME":"TEME","TLE_LINE1":"1 52488U 22049AP  22341.73026826 -.00001110  00000-0 -51593-4 0  9992","MEAN_MOTION_DDOT":"0.0000000000000","OBJECT_ID":"2022-049AP","ECCENTRICITY":"0.00027420","CLASSIFICATION_TYPE":"U","SITE":"AFETR","RCS_SIZE":"LARGE","PERIOD":"95.437","EPHEMERIS_TYPE":"0","GP_ID":"219742682","REV_AT_EPOCH":"3291","PERIAPSIS":"537.841","BSTAR":"-0.00005159300000","EPOCH":"2022-12-07T17:31:35.177664","MEAN_MOTION_DOT":"-0.00001110","MEAN_ELEMENT_THEORY":"SGP4","TIME_SYSTEM":"UTC","COUNTRY_CODE":"US","MEAN_MOTION":"15.08842349","NORAD_CAT_ID":"52488","APOAPSIS":"541.635","SEMIMAJOR_AXIS":"6917.873","DECAY_DATE":null,"OBJECT_NAME":"STARLINK-3892","TLE_LINE2":"2 52488  53.2189 352.0882 0002742  29.7783 330.3365 15.08842349 32918","ELEMENT_SET_NO":"999","RA_OF_ASC_NODE":"352.0882","FILE":"3684212"},{"MEAN_ELEMENT_THEORY":"SGP4","MEAN_MOTION_DOT":"-0.00001313","EPOCH":"2022-12-07T17:42:11.655360","BSTAR":"-0.00006440300000","PERIAPSIS":"537.748","REV_AT_EPOCH":"3291","GP_ID":"219741432","EPHEMERIS_TYPE":"0","PERIOD":"95.438","FILE":"3684212","ELEMENT_SET_NO":"999","RA_OF_ASC_NODE":"352.0581","TLE_LINE2":"2 52489  53.2178 352.0581 0002908  30.4951 329.6209 15.08835387 32915","OBJECT_NAME":"STARLINK-3923","DECAY_DATE":null,"SEMIMAJOR_AXIS":"6917.894","APOAPSIS":"541.771","NORAD_CAT_ID":"52489","MEAN_MOTION":"15.08835387","COUNTRY_CODE":"US","TIME_SYSTEM":"UTC","INCLINATION":"53.2178","ARG_OF_PERICENTER":"30.4951","MEAN_ANOMALY":"329.6209","OBJECT_TYPE":"PAYLOAD","RCS_SIZE":"LARGE","SITE":"AFETR","CLASSIFICATION_TYPE":"U","ECCENTRICITY":"0.00029080","OBJECT_ID":"2022-049AQ","MEAN_MOTION_DDOT":"0.0000000000000","TLE_LINE1":"1 52489U 22049AQ  22341.73763490 -.00001313  00000-0 -64403-4 0  9997","REF_FRAME":"TEME","CENTER_NAME":"EARTH","LAUNCH_DATE":"2022-05-06"},{"BSTAR":"-0.00000083809000","PERIAPSIS":"538.096","REV_AT_EPOCH":"3305","MEAN_ELEMENT_THEORY":"SGP4","MEAN_MOTION_DOT":"-0.00000302","EPOCH":"2022-12-07T17:54:06.677568","PERIOD":"95.438","GP_ID":"219741682","EPHEMERIS_TYPE":"0","OBJECT_NAME":"STARLINK-3914","DECAY_DATE":null,"SEMIMAJOR_AXIS":"6917.896","FILE":"3684212","RA_OF_ASC_NODE":"342.0177","ELEMENT_SET_NO":"999","TLE_LINE2":"2 52490  53.2180 342.0177 0002406  31.3025 328.8110 15.08835024 33051","COUNTRY_CODE":"US","TIME_SYSTEM":"UTC","APOAPSIS":"541.425","NORAD_CAT_ID":"52490","MEAN_MOTION":"15.08835024","INCLINATION":"53.2180","ARG_OF_PERICENTER":"31.3025","MEAN_ANOMALY":"328.8110","OBJECT_TYPE":"PAYLOAD","CLASSIFICATION_TYPE":"U","ECCENTRICITY":"0.00024060","MEAN_MOTION_DDOT":"0.0000000000000","OBJECT_ID":"2022-049AR","RCS_SIZE":"LARGE","SITE":"AFETR","REF_FRAME":"TEME","CENTER_NAME":"EARTH","LAUNCH_DATE":"2022-05-06","TLE_LINE1":"1 52490U 22049AR  22341.74591062 -.00000302  00000-0 -83809-6 0  9994"},{"BSTAR":"0.00002943700000","PERIAPSIS":"537.832","REV_AT_EPOCH":"3317","MEAN_ELEMENT_THEORY":"SGP4","MEAN_MOTION_DOT":"0.00000180","EPOCH":"2022-12-07T11:43:10.215552","PERIOD":"95.438","GP_ID":"219712765","EPHEMERIS_TYPE":"0","OBJECT_NAME":"STARLINK-3908","DECAY_DATE":null,"SEMIMAJOR_AXIS":"6917.888","FILE":"3683852","ELEMENT_SET_NO":"999","RA_OF_ASC_NODE":"343.1695","TLE_LINE2":"2 52491  53.2206 343.1695 0002777  26.3574 333.7559 15.08837398 33173","COUNTRY_CODE":"US","TIME_SYSTEM":"UTC","APOAPSIS":"541.674","NORAD_CAT_ID":"52491","MEAN_MOTION":"15.08837398","INCLINATION":"53.2206","ARG_OF_PERICENTER":"26.3574","MEAN_ANOMALY":"333.7559","OBJECT_TYPE":"PAYLOAD","CLASSIFICATION_TYPE":"U","ECCENTRICITY":"0.00027770","MEAN_MOTION_DDOT":"0.0000000000000","OBJECT_ID":"2022-049AS","RCS_SIZE":"MEDIUM","SITE":"AFETR","REF_FRAME":"TEME","CENTER_NAME":"EARTH","LAUNCH_DATE":"2022-05-06","TLE_LINE1":"1 52491U 22049AS  22341.48831268  .00000180  00000-0  29437-4 0  9998"},{"EPHEMERIS_TYPE":"0","GP_ID":"219743182","PERIOD":"95.438","MEAN_ELEMENT_THEORY":"SGP4","EPOCH":"2022-12-07T17:43:30.948960","MEAN_MOTION_DOT":"-0.00001053","BSTAR":"-0.00004805400000","REV_AT_EPOCH":"3305","PERIAPSIS":"538.215","NORAD_CAT_ID":"52492","APOAPSIS":"541.333","MEAN_MOTION":"15.08830634","TIME_SYSTEM":"UTC","COUNTRY_CODE":"US","FILE":"3684212","TLE_LINE2":"2 52492  53.2198 342.0556 0002253   9.5223 350.5811 15.08830634 33052","ELEMENT_SET_NO":"999","RA_OF_ASC_NODE":"342.0556","DECAY_DATE":null,"OBJECT_NAME":"STARLINK-3916","SEMIMAJOR_AXIS":"6917.909","MEAN_ANOMALY":"350.5811","ARG_OF_PERICENTER":"9.5223","OBJECT_TYPE":"PAYLOAD","INCLINATION":"53.2198","TLE_LINE1":"1 52492U 22049AT  22341.73855265 -.00001053  00000-0 -48054-4 0  9998","REF_FRAME":"TEME","LAUNCH_DATE":"2022-05-06","CENTER_NAME":"EARTH","RCS_SIZE":"LARGE","SITE":"AFETR","ECCENTRICITY":"0.00022530","CLASSIFICATION_TYPE":"U","OBJECT_ID":"2022-049AT","MEAN_MOTION_DDOT":"0.0000000000000"}];
